H1 CPF  1  JAX 2020 02 17 03  5481 ajisai     NONE      
H2  8606101 1500 16908    2020 02 16 00 00 00 2020 02 21 00 00 00   240 1 1  0 0 0
H9
10 0 58895  57600.000000  0       2396279.392       5964798.832       4509326.255
10 0 58895  57840.000000  0        977901.904       5743175.380       5262939.683
10 0 58895  58080.000000  0       -497920.855       5302891.494       5767655.346
10 0 58895  58320.000000  0      -1969270.270       4665611.641       5999703.720
10 0 58895  58560.000000  0      -3373610.125       3860048.222       5948231.013
10 0 58895  58800.000000  0      -4650493.397       2920620.566       5615787.097
10 0 58895  59040.000000  0      -5744217.065       1885951.356       5018188.292
10 0 58895  59280.000000  0      -6606310.055        797259.525       4183755.969
10 0 58895  59520.000000  0      -7197738.462       -303284.084       3151966.911
10 0 58895  59760.000000  0      -7490729.228      -1374176.564       1971577.526
10 0 58895  60000.000000  0      -7470119.410      -2376121.993        698301.373
10 0 58895  60240.000000  0      -7134149.031      -3273431.090       -607851.790
10 0 58895  60480.000000  0      -6494646.547      -4035225.528      -1885438.466
10 0 58895  60720.000000  0      -5576594.114      -4636402.393      -3074496.198
10 0 58895  60960.000000  0      -4417097.929      -5058329.275      -4119357.668
10 0 58895  61200.000000  0      -3063827.008      -5289260.826      -4971224.862
10 0 58895  61440.000000  0      -1573006.165      -5324486.578      -5590389.589
10 0 58895  61680.000000  0         -7060.864      -5166233.263      -5948012.996
10 0 58895  61920.000000  0       1567983.882      -4823352.520      -6027404.509
10 0 58895  62160.000000  0       3085251.280      -4310827.523      -5824764.745
10 0 58895  62400.000000  0       4479816.379      -3649128.209      -5349373.151
10 0 58895  62640.000000  0       5691470.696      -2863434.279      -4623207.474
10 0 58895  62880.000000  0       6667343.486      -1982747.073      -3680001.768
10 0 58895  63120.000000  0       7364279.017      -1038906.185      -2563763.900
10 0 58895  63360.000000  0       7750852.894        -65525.362      -1326789.545
10 0 58895  63600.000000  0       7808911.587        903125.627        -27245.439
10 0 58895  63840.000000  0       7534533.412       1833261.011       1273574.934
10 0 58895  64080.000000  0       6938334.291       2692700.133       2514187.035
10 0 58895  64320.000000  0       6045083.801       3451924.660       3635884.444
10 0 58895  64560.000000  0       4892645.182       4085030.356       4585578.493
10 0 58895  64800.000000  0       3530296.733       4570541.478       5318354.513
10 0 58895  65040.000000  0       2016527.915       4892066.156       5799614.298
10 0 58895  65280.000000  0        416427.353       5038776.764       6006702.130
10 0 58895  65520.000000  0      -1201201.176       5005715.778       5929948.792
10 0 58895  65760.000000  0      -2766866.311       4793930.455       5573100.080
10 0 58895  66000.000000  0      -4213430.426       4410439.468       4953119.461
10 0 58895  66240.000000  0      -5479044.757       3868034.890       4099378.931
10 0 58895  66480.000000  0      -6509857.660       3184912.907       3052264.506
10 0 58895  66720.000000  0      -7262365.263       2384133.087       1861253.782
10 0 58895  66960.000000  0      -7705292.766       1492918.476        582556.529
10 0 58895  67200.000000  0      -7820915.484        541809.909       -723569.674
10 0 58895  67440.000000  0      -7605750.749       -436303.523      -1995692.992
10 0 58895  67680.000000  0      -7070591.277      -1407244.125      -3174117.927
10 0 58895  67920.000000  0      -6239893.153      -2336658.739      -4203684.768
10 0 58895  68160.000000  0      -5150565.180      -3191145.988      -5036318.810
10 0 58895  68400.000000  0      -3850245.800      -3939362.253      -5633214.052
10 0 58895  68640.000000  0      -2395167.173      -4553080.811      -5966569.345
10 0 58895  68880.000000  0       -847709.991      -5008182.533      -6020820.417
10 0 58895  69120.000000  0        726250.645      -5285559.315      -5793333.576
10 0 58895  69360.000000  0       2260111.987      -5371908.412      -5294541.189
10 0 58895  69600.000000  0       3689330.169      -5260392.798      -4547513.298
10 0 58895  69840.000000  0       4954134.529      -4951131.719      -3586968.579
10 0 58895  70080.000000  0       6002064.385      -4451480.382      -2457742.749
10 0 58895  70320.000000  0       6790216.076      -3776061.966      -1212759.158
10 0 58895  70560.000000  0       7287090.757      -2946518.107         89422.195
10 0 58895  70800.000000  0       7473939.681      -1990957.127       1387370.221
10 0 58895  71040.000000  0       7345524.909       -943100.909       2619726.935
10 0 58895  71280.000000  0       6910245.122        158848.211       3728172.976
10 0 58895  71520.000000  0       6189618.905       1273576.259       4660248.446
10 0 58895  71760.000000  0       5217165.849       2358201.414       5371876.011
10 0 58895  72000.000000  0       4036760.647       3369927.539       5829460.020
10 0 58895  72240.000000  0       2700558.114       4267740.382       6011465.693
10 0 58895  72480.000000  0       1266600.407       5014080.713       5909411.523
10 0 58895  72720.000000  0       -203773.799       5576431.653       5528240.959
10 0 58895  72960.000000  0      -1648605.783       5928759.905       4886068.381
10 0 58895  73200.000000  0      -3007968.950       6052751.444       4013311.936
10 0 58895  73440.000000  0      -4226489.678       5938783.558       2951249.835
10 0 58895  73680.000000  0      -5255634.576       5586575.074       1750059.160
10 0 58895  73920.000000  0      -6055664.359       5005462.142        466424.055
10 0 58895  74160.000000  0      -6597161.587       4214267.273       -839172.310
10 0 58895  74400.000000  0      -6862062.415       3240754.060      -2105331.922
10 0 58895  74640.000000  0      -6844154.859       2120683.989      -3272650.471
10 0 58895  74880.000000  0      -6549038.402        896515.930      -4286499.372
10 0 58895  75120.000000  0      -5993575.586       -384190.570      -5099545.781
10 0 58895  75360.000000  0      -5204893.106      -1670600.225      -5673901.090
10 0 58895  75600.000000  0      -4219003.585      -2910582.767      -5982814.257
10 0 58895  75840.000000  0      -3079131.051      -4052776.216      -6011855.656
10 0 58895  76080.000000  0      -1833820.256      -5048669.908      -5759561.000
10 0 58895  76320.000000  0       -534900.316      -5854642.720      -5237517.139
10 0 58895  76560.000000  0        764630.098      -6433886.571      -4469882.317
10 0 58895  76800.000000  0       2012728.249      -6758137.923      -3492346.490
10 0 58895  77040.000000  0       3160373.038      -6809133.183      -2350554.423
10 0 58895  77280.000000  0       4163495.700      -6579701.160      -1098038.379
10 0 58895  77520.000000  0       4984697.329      -6074406.195        206267.181
10 0 58895  77760.000000  0       5594663.040      -5309670.847       1500817.722
10 0 58895  78000.000000  0       5973201.598      -4313349.622       2724411.001
10 0 58895  78240.000000  0       6109865.845      -3123755.462       3819142.356
10 0 58895  78480.000000  0       6004132.551      -1788174.008       4733203.328
10 0 58895  78720.000000  0       5665144.936       -360934.781       5423373.120
10 0 58895  78960.000000  0       5111050.311       1098863.481       5857075.487
10 0 58895  79200.000000  0       4367988.828       2529863.067       6013906.515
10 0 58895  79440.000000  0       3468802.141       3871081.051       5886573.445
10 0 58895  79680.000000  0       2451532.086       5064557.285       5481213.156
10 0 58895  79920.000000  0       1357778.557       6057908.638       4817082.142
10 0 58895  80160.000000  0        230983.665       6806681.034       3925635.121
10 0 58895  80400.000000  0       -885293.377       7276397.538       2849032.177
10 0 58895  80640.000000  0      -1949048.091       7444201.069       1638132.329
10 0 58895  80880.000000  0      -2921383.719       7299997.245        350067.905
10 0 58895  81120.000000  0      -3767886.324       6847035.927       -954479.637
10 0 58895  81360.000000  0      -4459771.961       6101890.696      -2214172.430
10 0 58895  81600.000000  0      -4974758.576       5093824.078      -3369923.042
10 0 58895  81840.000000  0      -5297638.461       3863582.678      -4367657.604
10 0 58895  82080.000000  0      -5420553.350       2461694.457      -5160805.712
10 0 58895  82320.000000  0      -5342990.313        946356.666      -5712410.289
10 0 58895  82560.000000  0      -5071526.801       -618987.963      -5996778.147
10 0 58895  82800.000000  0      -4619360.337      -2168286.211      -6000618.916
10 0 58895  83040.000000  0      -4005659.400      -3635623.501      -5723638.478
10 0 58895  83280.000000  0      -3254769.906      -4957994.339      -5178573.162
10 0 58895  83520.000000  0      -2395299.813      -6078002.995      -4390659.300
10 0 58895  83760.000000  0      -1459101.798      -6946392.794      -3396544.296
10 0 58895  84000.000000  0       -480174.510      -7524294.995      -2242663.817
10 0 58895  84240.000000  0        506493.512      -7785083.549       -983132.664
10 0 58895  84480.000000  0       1466105.651      -7715721.534        322771.792
10 0 58895  84720.000000  0       2365224.540      -7317506.666       1613417.209
10 0 58895  84960.000000  0       3172886.000      -6606153.951       2827777.927
10 0 58895  85200.000000  0       3861610.737      -5611181.654       3908388.275
10 0 58895  85440.000000  0       4408267.860      -4374638.243       4804114.885
10 0 58895  85680.000000  0       4794771.162      -2949249.439       5472609.143
10 0 58895  85920.000000  0       5008596.180      -1396078.276       5882321.472
10 0 58895  86160.000000  0       5043111.489        218185.277       6013982.258
99